{
  "type": "FeatureCollection",
  "features": [
    {
      "type": "Feature",
      "properties": {
        "norad_id": 39227,
        "name": "ARIRANG-5 (KOMPSAT-5)",
        "group": "resource",
        "lat": -9.821117664797857,
        "lon": -177.5317505712196,
        "alt_km": 555.395087902556,
        "timestamp": "2025-12-22T23:36:20.356679+00:00",
        "meta_object_name": "ARIRANG-5 (KOMPSAT-5)",
        "meta_object_id": "2013-042A",
        "meta_epoch": "2025-12-22T14:04:21.268992",
        "meta_mean_motion": 15.04545904,
        "meta_eccentricity": 0.0003419,
        "meta_inclination": 97.6157,
        "meta_ra_of_asc_node": 180.7496,
        "meta_arg_of_pericenter": 34.0672,
        "meta_mean_anomaly": 326.0773,
        "meta_ephemeris_type": 0,
        "meta_classification_type": "U",
        "meta_norad_cat_id": 39227,
        "meta_element_set_no": 999,
        "meta_rev_at_epoch": 67730,
        "meta_bstar": 0.00012353937,
        "meta_mean_motion_dot": 1.671e-05,
        "meta_mean_motion_ddot": 0,
        "tle_line1": "1 39227U 13042A   25356.58635728  .00001671  00000+0  12354-3 0  9990",
        "tle_line2": "2 39227  97.6157 180.7496 0003419  34.0672 326.0773 15.04545904677302"
      },
      "geometry": {
        "type": "Point",
        "coordinates": [
          -177.5317505712196,
          -9.821117664797857
        ]
      }
    },
    {
      "type": "Feature",
      "properties": {
        "norad_id": 39418,
        "name": "SKYSAT-A",
        "group": "resource",
        "lat": -81.21499086323442,
        "lon": 169.52471789537154,
        "alt_km": 532.3317443758733,
        "timestamp": "2025-12-22T23:36:20.356690+00:00",
        "meta_object_name": "SKYSAT-A",
        "meta_object_id": "2013-066C",
        "meta_epoch": "2025-12-22T01:47:01.235904",
        "meta_mean_motion": 15.11668448,
        "meta_eccentricity": 0.00213841,
        "meta_inclination": 97.4091,
        "meta_ra_of_asc_node": 45.9992,
        "meta_arg_of_pericenter": 202.7866,
        "meta_mean_anomaly": 157.2418,
        "meta_ephemeris_type": 0,
        "meta_classification_type": "U",
        "meta_norad_cat_id": 39418,
        "meta_element_set_no": 999,
        "meta_rev_at_epoch": 66171,
        "meta_bstar": 0.00020684815,
        "meta_mean_motion_dot": 3.473e-05,
        "meta_mean_motion_ddot": 0,
        "tle_line1": "1 39418U 13066C   25356.07431986  .00003473  00000+0  20685-3 0  9990",
        "tle_line2": "2 39418  97.4091  45.9992 0021384 202.7866 157.2418 15.11668448661717"
      },
      "geometry": {
        "type": "Point",
        "coordinates": [
          169.52471789537154,
          -81.21499086323442
        ]
      }
    },
    {
      "type": "Feature",
      "properties": {
        "norad_id": 39419,
        "name": "DUBAISAT-2",
        "group": "resource",
        "lat": -70.57578055505726,
        "lon": 8.840729075148415,
        "alt_km": 541.3493367578485,
        "timestamp": "2025-12-22T23:36:20.356700+00:00",
        "meta_object_name": "DUBAISAT-2",
        "meta_object_id": "2013-066D",
        "meta_epoch": "2025-12-22T14:22:18.237216",
        "meta_mean_motion": 15.08442241,
        "meta_eccentricity": 0.00100352,
        "meta_inclination": 97.4445,
        "meta_ra_of_asc_node": 346.7025,
        "meta_arg_of_pericenter": 283.0695,
        "meta_mean_anomaly": 76.9413,
        "meta_ephemeris_type": 0,
        "meta_classification_type": "U",
        "meta_norad_cat_id": 39419,
        "meta_element_set_no": 999,
        "meta_rev_at_epoch": 65975,
        "meta_bstar": 0.00035100346,
        "meta_mean_motion_dot": 5.41e-05,
        "meta_mean_motion_ddot": 0,
        "tle_line1": "1 39419U 13066D   25356.59882219  .00005410  00000+0  35100-3 0  9998",
        "tle_line2": "2 39419  97.4445 346.7025 0010035 283.0695  76.9413 15.08442241659753"
      },
      "geometry": {
        "type": "Point",
        "coordinates": [
          8.840729075148415,
          -70.57578055505726
        ]
      }
    },
    {
      "type": "Feature",
      "properties": {
        "norad_id": 39574,
        "name": "GPM-CORE",
        "group": "resource",
        "lat": -11.565930556356214,
        "lon": 172.8906720343136,
        "alt_km": 436.8583332510925,
        "timestamp": "2025-12-22T23:36:20.356709+00:00",
        "meta_object_name": "GPM-CORE",
        "meta_object_id": "2014-009C",
        "meta_epoch": "2025-12-22T12:47:00.642912",
        "meta_mean_motion": 15.44606651,
        "meta_eccentricity": 0.00092502,
        "meta_inclination": 64.972,
        "meta_ra_of_asc_node": 179.8872,
        "meta_arg_of_pericenter": 249.2133,
        "meta_mean_anomaly": 110.8017,
        "meta_ephemeris_type": 0,
        "meta_classification_type": "U",
        "meta_norad_cat_id": 39574,
        "meta_element_set_no": 999,
        "meta_rev_at_epoch": 67052,
        "meta_bstar": 0.00017797272,
        "meta_mean_motion_dot": 8.09e-05,
        "meta_mean_motion_ddot": 0,
        "tle_line1": "1 39574U 14009C   25356.53264633  .00008090  00000+0  17797-3 0  9995",
        "tle_line2": "2 39574  64.9720 179.8872 0009250 249.2133 110.8017 15.44606651670526"
      },
      "geometry": {
        "type": "Point",
        "coordinates": [
          172.8906720343136,
          -11.565930556356214
        ]
      }
    },
    {
      "type": "Feature",
      "properties": {
        "norad_id": 39634,
        "name": "SENTINEL-1A",
        "group": "resource",
        "lat": -79.95096863749731,
        "lon": 127.81590800321652,
        "alt_km": 704.0079474805298,
        "timestamp": "2025-12-22T23:36:20.356719+00:00",
        "meta_object_name": "SENTINEL-1A",
        "meta_object_id": "2014-016A",
        "meta_epoch": "2025-12-22T14:10:12.815904",
        "meta_mean_motion": 14.59200468,
        "meta_eccentricity": 0.00012863,
        "meta_inclination": 98.1795,
        "meta_ra_of_asc_node": 1.686,
        "meta_arg_of_pericenter": 83.7774,
        "meta_mean_anomaly": 276.3572,
        "meta_ephemeris_type": 0,
        "meta_classification_type": "U",
        "meta_norad_cat_id": 39634,
        "meta_element_set_no": 999,
        "meta_rev_at_epoch": 62426,
        "meta_bstar": -2.3433751e-05,
        "meta_mean_motion_dot": -1.56e-06,
        "meta_mean_motion_ddot": 0,
        "tle_line1": "1 39634U 14016A   25356.59042611 -.00000156  00000+0 -23434-4 0  9999",
        "tle_line2": "2 39634  98.1795   1.6860 0001286  83.7774 276.3572 14.59200468624261"
      },
      "geometry": {
        "type": "Point",
        "coordinates": [
          127.81590800321652,
          -79.95096863749731
        ]
      }
    },
    {
      "type": "Feature",
      "properties": {
        "norad_id": 39731,
        "name": "KAZEOSAT 1",
        "group": "resource",
        "lat": -31.97868435743632,
        "lon": 73.91788395459692,
        "alt_km": 758.2566738584646,
        "timestamp": "2025-12-22T23:36:20.356729+00:00",
        "meta_object_name": "KAZEOSAT 1",
        "meta_object_id": "2014-024A",
        "meta_epoch": "2025-12-22T13:45:50.266080",
        "meta_mean_motion": 14.4206837,
        "meta_eccentricity": 0.00012221,
        "meta_inclination": 98.3427,
        "meta_ra_of_asc_node": 68.2604,
        "meta_arg_of_pericenter": 96.4971,
        "meta_mean_anomaly": 263.6357,
        "meta_ephemeris_type": 0,
        "meta_classification_type": "U",
        "meta_norad_cat_id": 39731,
        "meta_element_set_no": 999,
        "meta_rev_at_epoch": 61310,
        "meta_bstar": 0.00014469168,
        "meta_mean_motion_dot": 4.32e-06,
        "meta_mean_motion_ddot": 0,
        "tle_line1": "1 39731U 14024A   25356.57349845  .00000432  00000+0  14469-3 0  9995",
        "tle_line2": "2 39731  98.3427  68.2604 0001222  96.4971 263.6357 14.42068370613105"
      },
      "geometry": {
        "type": "Point",
        "coordinates": [
          73.91788395459692,
          -31.97868435743632
        ]
      }
    },
    {
      "type": "Feature",
      "properties": {
        "norad_id": 39766,
        "name": "ALOS-2",
        "group": "resource",
        "lat": 30.59956037493626,
        "lon": -83.59158702155071,
        "alt_km": 628.7843436642561,
        "timestamp": "2025-12-22T23:36:20.356739+00:00",
        "meta_object_name": "ALOS-2",
        "meta_object_id": "2014-029A",
        "meta_epoch": "2025-12-22T13:11:43.903680",
        "meta_mean_motion": 14.79475388,
        "meta_eccentricity": 0.00014101,
        "meta_inclination": 97.923,
        "meta_ra_of_asc_node": 91.2567,
        "meta_arg_of_pericenter": 97.1247,
        "meta_mean_anomaly": 263.0125,
        "meta_ephemeris_type": 0,
        "meta_classification_type": "U",
        "meta_norad_cat_id": 39766,
        "meta_element_set_no": 999,
        "meta_rev_at_epoch": 62546,
        "meta_bstar": 0.00019585024,
        "meta_mean_motion_dot": 1.412e-05,
        "meta_mean_motion_ddot": 0,
        "tle_line1": "1 39766U 14029A   25356.54981370  .00001412  00000+0  19585-3 0  9993",
        "tle_line2": "2 39766  97.9230  91.2567 0001410  97.1247 263.0125 14.79475388625467"
      },
      "geometry": {
        "type": "Point",
        "coordinates": [
          -83.59158702155071,
          30.59956037493626
        ]
      }
    }
  ]
}